#aV2014 12  9  0  0  0.00000000     288 DD+AD WGS84 FIT  NGA
## 1822 172800.00000000   300.00000000 57000 0.0000000000000
+   32     1  2  3  4  5  6  7  8  9 10 11 12 13 14 15 16 17
+         18 19 20 21 22 23 24 25 26 27 28 29 30 31 32  0  0
+          0  0  0  0  0  0  0  0  0  0  0  0  0  0  0  0  0
+          0  0  0  0  0  0  0  0  0  0  0  0  0  0  0  0  0
+          0  0  0  0  0  0  0  0  0  0  0  0  0  0  0  0  0
++         2  2  2  2  2  2  2  2  2  2  2  2  2  2  2  2  2
++         2  2  2  2  2  2  2  2  2  2  2  2  2  2  2  0  0
++         0  0  0  0  0  0  0  0  0  0  0  0  0  0  0  0  0
++         0  0  0  0  0  0  0  0  0  0  0  0  0  0  0  0  0
++         0  0  0  0  0  0  0  0  0  0  0  0  0  0  0  0  0
%c cc cc ccc ccc cccc cccc cccc cccc ccccc ccccc ccccc ccccc
%c cc cc ccc ccc cccc cccc cccc cccc ccccc ccccc ccccc ccccc
%f  0.0000000  0.000000000  0.00000000000  0.000000000000000
%f  0.0000000  0.000000000  0.00000000000  0.000000000000000
%i    0    0    0    0      0      0      0      0         0
%i    0    0    0    0      0      0      0      0         0
/*      NGA, ST. LOUIS,MO.                                  
/*   EPHEMERIS COMPUTED FROM  1 DAYS OF DATA                
/*   EPOCHA SMOOTHER                                       
/* CCCCCCCCCCCCCCCCCCCCCCCCCCCCCCCCCCCCCCCCCCCCCCCCCCCCCCCCC
*  2014 12  9 13 35  0.00000000
P  1  22866.425820  13145.260460   3750.085105    -11.319750                    
V  1   2373.847901   4937.906123 -31187.441754      0.003737                    
P  2  -7951.696467 -19757.414894  16484.024919    534.840383                    
V  2  17854.063361   9639.660685  20095.632862      0.022400                    
P  3  13201.481448  11110.462214  20185.850182     60.931749                    
V  3  -3420.096758  25431.519151 -11809.439804      0.311264                    
P  4  18124.782213  18505.052056  -6787.798374     -4.130853                    
V  4  -8473.630890  -2116.390529 -29508.507529     -0.003912                    
P  5  -2967.156374 -25329.860192  -7135.466868   -308.213421                    
V  5   3997.039242  -8742.859377  29764.309383      0.047180                    
P  6   6280.597578 -14050.389753  21633.423829     23.822714                    
V  6  22674.892867  15564.868093   3507.046553      0.072916                    
P  7  21957.318169   3927.831282 -14586.556897    420.571063                    
V  7  13887.154245  12377.562539  23726.887540      0.036447                    
P  8  16440.894338  20452.452860   6051.732371     16.644120                    
V  8  -6107.074051  -4091.167277  30894.396913      0.002513                    
P  9  24902.268827  -6434.019936   6648.950192    -23.470389                    
V  9  -6509.545007   6032.189695  30194.745846     -0.089588                    
P 10   9257.142499 -22624.854570   9464.213269   -153.399623                    
V 10   2188.864719  13011.317307  28297.535924     -0.017080                    
P 11  22677.322420  12419.954259  -6940.302879   -542.330236                    
V 11  -9146.044401   1981.565944 -28336.763419     -0.027039                    
P 12 -10783.392776 -14769.341990  19266.322340    252.287752                    
V 12   4156.516185 -24143.322751 -15911.576815      0.028609                    
P 13  10226.311772 -16521.400959 -18369.742572    -68.016409                    
V 13  22057.161145  -6164.875954  17807.592849     -0.035157                    
P 14 -19181.681178  14978.761020  10694.346451    108.022774                    
V 14 -13241.854941   2474.157943 -27960.153280     -0.035828                    
P 15 -17086.271916  -7159.923556 -19216.215623   -219.321589                    
V 15  20903.431281 -12342.284831 -13723.214595     -0.022040                    
P 16   1038.918331  25287.420585  -7465.150446   -174.554084                    
V 16  -3503.756839   9039.175209  30709.328680      0.029701                    
P 17  19920.442651 -14932.693094   9196.045419   -142.783836                    
V 17  11401.874225  -2084.792768 -29178.983598     -0.024329                    
P 18 -15093.430031   9801.465922 -18970.436302    363.923334                    
V 18     23.687093 -25389.959062 -13135.240365      0.026516                    
P 19  11334.840521  11556.283149 -21306.350348   -491.697621                    
V 19 -24909.552945   9196.621016  -7889.166953     -0.016100                    
P 20  14964.897468   8212.607326  20159.409528    265.470635                    
V 20  -1787.649093  26138.008582  -9158.112931      0.041135                    
P 21 -19637.545914   2036.754851 -17289.282529   -399.282522                    
V 21 -17948.185450 -14858.570935  17548.094064     -0.020569                    
P 22 -10127.753950  21700.999596 -11092.246633    295.052301                    
V 22  -2445.848432 -14785.481670 -26355.064087      0.038643                    
P 23  21861.396090   2150.736935  15354.747607    -73.222592                    
V 23 -16633.455998   9630.612011  22102.314263     -0.027304                    
P 24 -22127.777339 -14808.468660    450.826815    -39.801490                    
V 24   1149.179549  -2721.049451 -31539.101514     -0.006507                    
P 25 -14849.326458   -118.311064  21939.560412     10.239835                    
V 25   2363.679323 -27899.544717   1583.915189     -0.020144                    
P 26  -2958.636856 -15049.543993 -22332.637373   -151.036688                    
V 26  25381.718938  -8460.881884   2683.840011     -0.131767                    
P 27    -73.726130  16121.727336 -21105.899161     35.808871                    
V 27 -24585.419242  10617.843049   8276.669518      0.027622                    
P 28  12470.904540 -17986.865028 -14340.500380    404.075081                    
V 28  -1345.045699  19330.598655 -24482.231552      0.025981                    
P 29 -24799.461241   3351.465202   8870.920178    578.454560                    
V 29   9582.797989  -6270.304157  29287.482102      0.023806                    
P 30  15364.429354  -6244.405530 -20753.187779    -84.261136                    
V 30  19766.790990  17456.217981   9333.566698     -0.014051                    
P 31  -4358.020987  14985.657517  21593.629333    327.690238                    
V 31 -21976.138090 -15820.584220   6908.631192     -0.006378                    
P 32   6078.550968  22214.496648  13697.927944   -274.901018                    
V 32  -5108.039910  16567.627625 -24067.350788      0.088926                    
EOF
